{
 "type": "FeatureCollection",
 "name": "distritos_pp_smt",
 "crs": {
  "type": "name",
  "properties": {
   "name": "urn:ogc:def:crs:OGC:1.3:CRS84"
  }
 },
 "features": [
  {
   "type": "Feature",
   "properties": {
    "id": 1,
    "name": "Distrito 1",
    "numero": 1
   },
   "geometry": {
    "type": "MultiPolygon",
    "coordinates": [
     [
      [
       [
        -65.249511,
        -26.784171
       ],
       [
        -65.256887,
        -26.791972
       ],
       [
        -65.259988,
        -26.800802
       ],
       [
        -65.261814,
        -26.806565
       ],
       [
        -65.257724,
        -26.807405
       ],
       [
        -65.257486,
        -26.806256
       ],
       [
        -65.247781,
        -26.808049
       ],
       [
        -65.242623,
        -26.784826
       ],
       [
        -65.24897,
        -26.783275
       ],
       [
        -65.24964,
        -26.783987
       ],
       [
        -65.249511,
        -26.784171
       ]
      ]
     ]
    ]
   }
  },
  {
   "type": "Feature",
   "properties": {
    "id": 2,
    "name": "Distrito 2",
    "numero": 2
   },
   "geometry": {
    "type": "MultiPolygon",
    "coordinates": [
     [
      [
       [
        -65.242663,
        -26.784834
       ],
       [
        -65.242653,
        -26.784869
       ],
       [
        -65.243245,
        -26.787656
       ],
       [
        -65.244684,
        -26.794249
       ],
       [
        -65.246406,
        -26.802105
       ],
       [
        -65.246992,
        -26.804509
       ],
       [
        -65.247469,
        -26.80686
       ],
       [
        -65.237569,
        -26.808777
       ],
       [
        -65.233189,
        -26.789449
       ],
       [
        -65.232655,
        -26.787508
       ],
       [
        -65.2326,
        -26.787155
       ],
       [
        -65.233462,
        -26.786594
       ],
       [
        -65.235558,
        -26.786223
       ],
       [
        -65.237033,
        -26.785987
       ],
       [
        -65.238857,
        -26.785684
       ],
       [
        -65.240112,
        -26.785321
       ],
       [
        -65.240769,
        -26.785056
       ],
       [
        -65.241232,
        -26.784654
       ],
       [
        -65.241516,
        -26.784493
       ],
       [
        -65.241554,
        -26.785079
       ],
       [
        -65.242663,
        -26.784834
       ]
      ]
     ]
    ]
   }
  },
  {
   "type": "Feature",
   "properties": {
    "id": 3,
    "name": "Distrito 3",
    "numero": 3
   },
   "geometry": {
    "type": "MultiPolygon",
    "coordinates": [
     [
      [
       [
        -65.232581,
        -26.787181
       ],
       [
        -65.232636,
        -26.787577
       ],
       [
        -65.233085,
        -26.789225
       ],
       [
        -65.233906,
        -26.792691
       ],
       [
        -65.236063,
        -26.802376
       ],
       [
        -65.237544,
        -26.808823
       ],
       [
        -65.238226,
        -26.811512
       ],
       [
        -65.229144,
        -26.813222
       ],
       [
        -65.223402,
        -26.79281
       ],
       [
        -65.22282,
        -26.790759
       ],
       [
        -65.222668,
        -26.790229
       ],
       [
        -65.222471,
        -26.789524
       ],
       [
        -65.22228,
        -26.788773
       ],
       [
        -65.222259,
        -26.788625
       ],
       [
        -65.222606,
        -26.788763
       ],
       [
        -65.223204,
        -26.788895
       ],
       [
        -65.224575,
        -26.788731
       ],
       [
        -65.226701,
        -26.788306
       ],
       [
        -65.229942,
        -26.787792
       ],
       [
        -65.232581,
        -26.787181
       ]
      ]
     ]
    ]
   }
  },
  {
   "type": "Feature",
   "properties": {
    "id": 4,
    "name": "Distrito 4",
    "numero": 4
   },
   "geometry": {
    "type": "MultiPolygon",
    "coordinates": [
     [
      [
       [
        -65.222255,
        -26.788623
       ],
       [
        -65.222275,
        -26.788775
       ],
       [
        -65.222436,
        -26.789404
       ],
       [
        -65.225336,
        -26.799794
       ],
       [
        -65.229045,
        -26.813214
       ],
       [
        -65.218284,
        -26.815246
       ],
       [
        -65.215629,
        -26.815754
       ],
       [
        -65.215645,
        -26.816057
       ],
       [
        -65.215447,
        -26.816243
       ],
       [
        -65.215211,
        -26.816088
       ],
       [
        -65.212151,
        -26.816641
       ],
       [
        -65.211362,
        -26.813822
       ],
       [
        -65.214702,
        -26.813092
       ],
       [
        -65.213121,
        -26.806105
       ],
       [
        -65.21059,
        -26.795563
       ],
       [
        -65.210916,
        -26.794898
       ],
       [
        -65.210325,
        -26.792169
       ],
       [
        -65.21094,
        -26.791427
       ],
       [
        -65.212419,
        -26.791283
       ],
       [
        -65.213458,
        -26.790978
       ],
       [
        -65.214036,
        -26.790637
       ],
       [
        -65.214625,
        -26.789953
       ],
       [
        -65.215091,
        -26.789215
       ],
       [
        -65.21563,
        -26.788329
       ],
       [
        -65.215989,
        -26.787705
       ],
       [
        -65.216284,
        -26.787446
       ],
       [
        -65.216551,
        -26.787251
       ],
       [
        -65.217297,
        -26.786879
       ],
       [
        -65.217687,
        -26.786773
       ],
       [
        -65.218388,
        -26.786697
       ],
       [
        -65.219004,
        -26.786714
       ],
       [
        -65.219461,
        -26.786856
       ],
       [
        -65.220437,
        -26.787331
       ],
       [
        -65.220721,
        -26.787546
       ],
       [
        -65.221614,
        -26.788302
       ],
       [
        -65.221751,
        -26.788409
       ],
       [
        -65.221913,
        -26.788485
       ],
       [
        -65.222255,
        -26.788623
       ]
      ]
     ]
    ]
   }
  },
  {
   "type": "Feature",
   "properties": {
    "id": 5,
    "name": "Distrito 5",
    "numero": 5
   },
   "geometry": {
    "type": "MultiPolygon",
    "coordinates": [
     [
      [
       [
        -65.210921,
        -26.791418
       ],
       [
        -65.210415,
        -26.792201
       ],
       [
        -65.211012,
        -26.794863
       ],
       [
        -65.210685,
        -26.795584
       ],
       [
        -65.213179,
        -26.806099
       ],
       [
        -65.214759,
        -26.813095
       ],
       [
        -65.21163,
        -26.813759
       ],
       [
        -65.211473,
        -26.813803
       ],
       [
        -65.212195,
        -26.816687
       ],
       [
        -65.203232,
        -26.818355
       ],
       [
        -65.197771,
        -26.794576
       ],
       [
        -65.195718,
        -26.794959
       ],
       [
        -65.196259,
        -26.793752
       ],
       [
        -65.196504,
        -26.793522
       ],
       [
        -65.196439,
        -26.793281
       ],
       [
        -65.197727,
        -26.792545
       ],
       [
        -65.19894,
        -26.792172
       ],
       [
        -65.210921,
        -26.791418
       ]
      ]
     ]
    ]
   }
  },
  {
   "type": "Feature",
   "properties": {
    "id": 6,
    "name": "Distrito 6",
    "numero": 6
   },
   "geometry": {
    "type": "MultiPolygon",
    "coordinates": [
     [
      [
       [
        -65.196427,
        -26.793269
       ],
       [
        -65.196465,
        -26.793522
       ],
       [
        -65.196221,
        -26.793763
       ],
       [
        -65.195706,
        -26.794982
       ],
       [
        -65.197776,
        -26.794585
       ],
       [
        -65.203209,
        -26.818376
       ],
       [
        -65.194161,
        -26.82015
       ],
       [
        -65.188477,
        -26.796455
       ],
       [
        -65.188214,
        -26.795724
       ],
       [
        -65.188139,
        -26.795428
       ],
       [
        -65.191744,
        -26.79457
       ],
       [
        -65.194698,
        -26.793874
       ],
       [
        -65.195238,
        -26.793694
       ],
       [
        -65.196341,
        -26.793314
       ],
       [
        -65.196427,
        -26.793269
       ]
      ]
     ]
    ]
   }
  },
  {
   "type": "Feature",
   "properties": {
    "id": 7,
    "name": "Distrito 7",
    "numero": 7
   },
   "geometry": {
    "type": "MultiPolygon",
    "coordinates": [
     [
      [
       [
        -65.188133,
        -26.79543
       ],
       [
        -65.188211,
        -26.795724
       ],
       [
        -65.188466,
        -26.796415
       ],
       [
        -65.189232,
        -26.799544
       ],
       [
        -65.190933,
        -26.806596
       ],
       [
        -65.191611,
        -26.809625
       ],
       [
        -65.180561,
        -26.811711
       ],
       [
        -65.160524,
        -26.815471
       ],
       [
        -65.160196,
        -26.814756
       ],
       [
        -65.160505,
        -26.812423
       ],
       [
        -65.15999,
        -26.810999
       ],
       [
        -65.159925,
        -26.80908
       ],
       [
        -65.160221,
        -26.807137
       ],
       [
        -65.159462,
        -26.80531
       ],
       [
        -65.1595,
        -26.804391
       ],
       [
        -65.160737,
        -26.803357
       ],
       [
        -65.161522,
        -26.802357
       ],
       [
        -65.161998,
        -26.801357
       ],
       [
        -65.161406,
        -26.799461
       ],
       [
        -65.161792,
        -26.79784
       ],
       [
        -65.162364,
        -26.796645
       ],
       [
        -65.162758,
        -26.795691
       ],
       [
        -65.16322,
        -26.795134
       ],
       [
        -65.164264,
        -26.793795
       ],
       [
        -65.164766,
        -26.79314
       ],
       [
        -65.165642,
        -26.792335
       ],
       [
        -65.16674,
        -26.7914
       ],
       [
        -65.167354,
        -26.790784
       ],
       [
        -65.168455,
        -26.789956
       ],
       [
        -65.169028,
        -26.789681
       ],
       [
        -65.169653,
        -26.789497
       ],
       [
        -65.170148,
        -26.789364
       ],
       [
        -65.170734,
        -26.789273
       ],
       [
        -65.171404,
        -26.789221
       ],
       [
        -65.172195,
        -26.789324
       ],
       [
        -65.172659,
        -26.789376
       ],
       [
        -65.1732,
        -26.789514
       ],
       [
        -65.173701,
        -26.789684
       ],
       [
        -65.174429,
        -26.789991
       ],
       [
        -65.174655,
        -26.79014
       ],
       [
        -65.175163,
        -26.79052
       ],
       [
        -65.175903,
        -26.791163
       ],
       [
        -65.176644,
        -26.791755
       ],
       [
        -65.177706,
        -26.792715
       ],
       [
        -65.178105,
        -26.792922
       ],
       [
        -65.178575,
        -26.793094
       ],
       [
        -65.17909,
        -26.793169
       ],
       [
        -65.179367,
        -26.793163
       ],
       [
        -65.179837,
        -26.793031
       ],
       [
        -65.180242,
        -26.792858
       ],
       [
        -65.181182,
        -26.792393
       ],
       [
        -65.181639,
        -26.792157
       ],
       [
        -65.182039,
        -26.792111
       ],
       [
        -65.182438,
        -26.792117
       ],
       [
        -65.182914,
        -26.792209
       ],
       [
        -65.183403,
        -26.792422
       ],
       [
        -65.183732,
        -26.79272
       ],
       [
        -65.183893,
        -26.793071
       ],
       [
        -65.184494,
        -26.793999
       ],
       [
        -65.185084,
        -26.794597
       ],
       [
        -65.185312,
        -26.794783
       ],
       [
        -65.185772,
        -26.795048
       ],
       [
        -65.186139,
        -26.79522
       ],
       [
        -65.186519,
        -26.795339
       ],
       [
        -65.186831,
        -26.795413
       ],
       [
        -65.187156,
        -26.795447
       ],
       [
        -65.187581,
        -26.795467
       ],
       [
        -65.188133,
        -26.79543
       ]
      ]
     ]
    ]
   }
  },
  {
   "type": "Feature",
   "properties": {
    "id": 8,
    "name": "Distrito 8",
    "numero": 8
   },
   "geometry": {
    "type": "MultiPolygon",
    "coordinates": [
     [
      [
       [
        -65.191614,
        -26.809635
       ],
       [
        -65.19417,
        -26.820098
       ],
       [
        -65.191641,
        -26.820471
       ],
       [
        -65.178077,
        -26.822866
       ],
       [
        -65.174443,
        -26.823637
       ],
       [
        -65.173418,
        -26.823844
       ],
       [
        -65.172718,
        -26.823857
       ],
       [
        -65.170665,
        -26.823869
       ],
       [
        -65.169882,
        -26.823882
       ],
       [
        -65.16696,
        -26.823909
       ],
       [
        -65.164733,
        -26.823932
       ],
       [
        -65.164366,
        -26.82353
       ],
       [
        -65.164044,
        -26.823133
       ],
       [
        -65.164115,
        -26.821599
       ],
       [
        -65.163213,
        -26.820462
       ],
       [
        -65.162306,
        -26.8201
       ],
       [
        -65.161874,
        -26.819393
       ],
       [
        -65.161861,
        -26.818687
       ],
       [
        -65.161546,
        -26.817923
       ],
       [
        -65.161424,
        -26.81736
       ],
       [
        -65.160947,
        -26.816785
       ],
       [
        -65.16053,
        -26.815514
       ],
       [
        -65.191614,
        -26.809635
       ]
      ]
     ]
    ]
   }
  },
  {
   "type": "Feature",
   "properties": {
    "id": 9,
    "name": "Distrito 9",
    "numero": 9
   },
   "geometry": {
    "type": "MultiPolygon",
    "coordinates": [
     [
      [
       [
        -65.261825,
        -26.806584
       ],
       [
        -65.261895,
        -26.806802
       ],
       [
        -65.262327,
        -26.808026
       ],
       [
        -65.262983,
        -26.809152
       ],
       [
        -65.26344,
        -26.810003
       ],
       [
        -65.263794,
        -26.810979
       ],
       [
        -65.264097,
        -26.813415
       ],
       [
        -65.264425,
        -26.815622
       ],
       [
        -65.265011,
        -26.818385
       ],
       [
        -65.265545,
        -26.820608
       ],
       [
        -65.265835,
        -26.821809
       ],
       [
        -65.266852,
        -26.824975
       ],
       [
        -65.266549,
        -26.826005
       ],
       [
        -65.266266,
        -26.826462
       ],
       [
        -65.26582,
        -26.826831
       ],
       [
        -65.262153,
        -26.828875
       ],
       [
        -65.260841,
        -26.829833
       ],
       [
        -65.258739,
        -26.834232
       ],
       [
        -65.255899,
        -26.83401
       ],
       [
        -65.25444,
        -26.834002
       ],
       [
        -65.235408,
        -26.837638
       ],
       [
        -65.231922,
        -26.824994
       ],
       [
        -65.231336,
        -26.820788
       ],
       [
        -65.22985,
        -26.814795
       ],
       [
        -65.228858,
        -26.81342
       ],
       [
        -65.238258,
        -26.811541
       ],
       [
        -65.237569,
        -26.808811
       ],
       [
        -65.247462,
        -26.806883
       ],
       [
        -65.247791,
        -26.808078
       ],
       [
        -65.257479,
        -26.806274
       ],
       [
        -65.25773,
        -26.807411
       ],
       [
        -65.261825,
        -26.806584
       ]
      ]
     ]
    ]
   }
  },
  {
   "type": "Feature",
   "properties": {
    "id": 10,
    "name": "Distrito 10",
    "numero": 10
   },
   "geometry": {
    "type": "MultiPolygon",
    "coordinates": [
     [
      [
       [
        -65.228823,
        -26.81342
       ],
       [
        -65.229812,
        -26.814777
       ],
       [
        -65.23126,
        -26.820719
       ],
       [
        -65.232075,
        -26.825029
       ],
       [
        -65.23538,
        -26.837687
       ],
       [
        -65.200284,
        -26.844698
       ],
       [
        -65.200073,
        -26.845072
       ],
       [
        -65.197596,
        -26.8458
       ],
       [
        -65.191693,
        -26.820474
       ],
       [
        -65.194155,
        -26.820116
       ],
       [
        -65.203304,
        -26.818365
       ],
       [
        -65.208147,
        -26.817425
       ],
       [
        -65.212151,
        -26.816644
       ],
       [
        -65.21283,
        -26.816521
       ],
       [
        -65.213348,
        -26.816427
       ],
       [
        -65.213788,
        -26.816349
       ],
       [
        -65.214109,
        -26.816291
       ],
       [
        -65.214585,
        -26.816204
       ],
       [
        -65.215211,
        -26.81609
       ],
       [
        -65.215448,
        -26.816245
       ],
       [
        -65.21545,
        -26.816242
       ],
       [
        -65.215648,
        -26.816058
       ],
       [
        -65.215624,
        -26.815761
       ],
       [
        -65.218424,
        -26.815237
       ],
       [
        -65.228823,
        -26.81342
       ]
      ]
     ]
    ]
   }
  },
  {
   "type": "Feature",
   "properties": {
    "id": 11,
    "name": "Distrito 11",
    "numero": 11
   },
   "geometry": {
    "type": "MultiPolygon",
    "coordinates": [
     [
      [
       [
        -65.191673,
        -26.820467
       ],
       [
        -65.197589,
        -26.845797
       ],
       [
        -65.183462,
        -26.849836
       ],
       [
        -65.179831,
        -26.850444
       ],
       [
        -65.179934,
        -26.850157
       ],
       [
        -65.179355,
        -26.84871
       ],
       [
        -65.178969,
        -26.848124
       ],
       [
        -65.179406,
        -26.847595
       ],
       [
        -65.1792,
        -26.846596
       ],
       [
        -65.178608,
        -26.846068
       ],
       [
        -65.177462,
        -26.84562
       ],
       [
        -65.176767,
        -26.845022
       ],
       [
        -65.176342,
        -26.843816
       ],
       [
        -65.176123,
        -26.843
       ],
       [
        -65.176432,
        -26.842093
       ],
       [
        -65.176329,
        -26.841139
       ],
       [
        -65.175737,
        -26.840301
       ],
       [
        -65.174256,
        -26.838853
       ],
       [
        -65.173535,
        -26.836487
       ],
       [
        -65.173059,
        -26.835659
       ],
       [
        -65.172093,
        -26.834637
       ],
       [
        -65.171205,
        -26.832695
       ],
       [
        -65.169145,
        -26.830186
       ],
       [
        -65.167205,
        -26.827694
       ],
       [
        -65.167046,
        -26.827537
       ],
       [
        -65.165501,
        -26.824745
       ],
       [
        -65.164745,
        -26.823959
       ],
       [
        -65.17342,
        -26.823848
       ],
       [
        -65.178058,
        -26.8229
       ],
       [
        -65.182652,
        -26.822083
       ],
       [
        -65.191673,
        -26.820467
       ]
      ]
     ]
    ]
   }
  },
  {
   "type": "Feature",
   "properties": {
    "id": 12,
    "name": "Distrito 12",
    "numero": 12
   },
   "geometry": {
    "type": "MultiPolygon",
    "coordinates": [
     [
      [
       [
        -65.266859,
        -26.824992
       ],
       [
        -65.267078,
        -26.825308
       ],
       [
        -65.268568,
        -26.828495
       ],
       [
        -65.269009,
        -26.829481
       ],
       [
        -65.269389,
        -26.829935
       ],
       [
        -65.269466,
        -26.83024
       ],
       [
        -65.269511,
        -26.830475
       ],
       [
        -65.26953,
        -26.831055
       ],
       [
        -65.269923,
        -26.831486
       ],
       [
        -65.270013,
        -26.831854
       ],
       [
        -65.270425,
        -26.83202
       ],
       [
        -65.270837,
        -26.832084
       ],
       [
        -65.271056,
        -26.832331
       ],
       [
        -65.271114,
        -26.832624
       ],
       [
        -65.27114,
        -26.832968
       ],
       [
        -65.270959,
        -26.83356
       ],
       [
        -65.270947,
        -26.834014
       ],
       [
        -65.270573,
        -26.834651
       ],
       [
        -65.270438,
        -26.835042
       ],
       [
        -65.270432,
        -26.835697
       ],
       [
        -65.270309,
        -26.83611
       ],
       [
        -65.270502,
        -26.836553
       ],
       [
        -65.270451,
        -26.836932
       ],
       [
        -65.270168,
        -26.837248
       ],
       [
        -65.270045,
        -26.838282
       ],
       [
        -65.269807,
        -26.838546
       ],
       [
        -65.269762,
        -26.839178
       ],
       [
        -65.269878,
        -26.83958
       ],
       [
        -65.269884,
        -26.839907
       ],
       [
        -65.269273,
        -26.840752
       ],
       [
        -65.269176,
        -26.84101
       ],
       [
        -65.268957,
        -26.841372
       ],
       [
        -65.26888,
        -26.841585
       ],
       [
        -65.268648,
        -26.841998
       ],
       [
        -65.268494,
        -26.842159
       ],
       [
        -65.268236,
        -26.842268
       ],
       [
        -65.267992,
        -26.842285
       ],
       [
        -65.267882,
        -26.842291
       ],
       [
        -65.267805,
        -26.842337
       ],
       [
        -65.267908,
        -26.842463
       ],
       [
        -65.267953,
        -26.842733
       ],
       [
        -65.268262,
        -26.843153
       ],
       [
        -65.26861,
        -26.843262
       ],
       [
        -65.268758,
        -26.843423
       ],
       [
        -65.268861,
        -26.843681
       ],
       [
        -65.269067,
        -26.844698
       ],
       [
        -65.269601,
        -26.845938
       ],
       [
        -65.265311,
        -26.846822
       ],
       [
        -65.265311,
        -26.846831
       ],
       [
        -65.265309,
        -26.847132
       ],
       [
        -65.261309,
        -26.847973
       ],
       [
        -65.258733,
        -26.848407
       ],
       [
        -65.254887,
        -26.849248
       ],
       [
        -65.251984,
        -26.849836
       ],
       [
        -65.250307,
        -26.850085
       ],
       [
        -65.251055,
        -26.848091
       ],
       [
        -65.251991,
        -26.845926
       ],
       [
        -65.254084,
        -26.841441
       ],
       [
        -65.258739,
        -26.834335
       ],
       [
        -65.26088,
        -26.829799
       ],
       [
        -65.262213,
        -26.828886
       ],
       [
        -65.263577,
        -26.828214
       ],
       [
        -65.26578,
        -26.826953
       ],
       [
        -65.266288,
        -26.826485
       ],
       [
        -65.266588,
        -26.82602
       ],
       [
        -65.266859,
        -26.824992
       ]
      ]
     ]
    ]
   }
  },
  {
   "type": "Feature",
   "properties": {
    "id": 13,
    "name": "Distrito 13",
    "numero": 13
   },
   "geometry": {
    "type": "MultiPolygon",
    "coordinates": [
     [
      [
       [
        -65.234212,
        -26.837958
       ],
       [
        -65.242358,
        -26.836298
       ],
       [
        -65.254517,
        -26.83402
       ],
       [
        -65.256782,
        -26.834101
       ],
       [
        -65.258681,
        -26.834317
       ],
       [
        -65.254008,
        -26.841269
       ],
       [
        -65.251991,
        -26.845926
       ],
       [
        -65.25061,
        -26.849243
       ],
       [
        -65.250288,
        -26.850094
       ],
       [
        -65.249869,
        -26.851034
       ],
       [
        -65.249406,
        -26.852078
       ],
       [
        -65.248992,
        -26.853006
       ],
       [
        -65.241858,
        -26.859083
       ],
       [
        -65.240843,
        -26.854766
       ],
       [
        -65.240228,
        -26.852131
       ],
       [
        -65.239859,
        -26.851315
       ],
       [
        -65.239322,
        -26.850187
       ],
       [
        -65.238754,
        -26.848966
       ],
       [
        -65.238289,
        -26.846806
       ],
       [
        -65.237749,
        -26.844836
       ],
       [
        -65.237086,
        -26.843584
       ],
       [
        -65.236758,
        -26.843199
       ],
       [
        -65.235776,
        -26.843409
       ],
       [
        -65.234212,
        -26.837958
       ]
      ]
     ]
    ]
   }
  },
  {
   "type": "Feature",
   "properties": {
    "id": 14,
    "name": "Distrito 14",
    "numero": 14
   },
   "geometry": {
    "type": "MultiPolygon",
    "coordinates": [
     [
      [
       [
        -65.234205,
        -26.837961
       ],
       [
        -65.235767,
        -26.843414
       ],
       [
        -65.236758,
        -26.843199
       ],
       [
        -65.237083,
        -26.843585
       ],
       [
        -65.237744,
        -26.844839
       ],
       [
        -65.238289,
        -26.846809
       ],
       [
        -65.238542,
        -26.848013
       ],
       [
        -65.238747,
        -26.848965
       ],
       [
        -65.239046,
        -26.849595
       ],
       [
        -65.239837,
        -26.851288
       ],
       [
        -65.240237,
        -26.852138
       ],
       [
        -65.240842,
        -26.854765
       ],
       [
        -65.240863,
        -26.854855
       ],
       [
        -65.24183,
        -26.859077
       ],
       [
        -65.239061,
        -26.861359
       ],
       [
        -65.238136,
        -26.862145
       ],
       [
        -65.237918,
        -26.862322
       ],
       [
        -65.237444,
        -26.862707
       ],
       [
        -65.237186,
        -26.862917
       ],
       [
        -65.236922,
        -26.86313
       ],
       [
        -65.236309,
        -26.863629
       ],
       [
        -65.235969,
        -26.863905
       ],
       [
        -65.2355,
        -26.864287
       ],
       [
        -65.234955,
        -26.864729
       ],
       [
        -65.234655,
        -26.864967
       ],
       [
        -65.233829,
        -26.865641
       ],
       [
        -65.23257,
        -26.866663
       ],
       [
        -65.231427,
        -26.867586
       ],
       [
        -65.22826,
        -26.862009
       ],
       [
        -65.22773,
        -26.861398
       ],
       [
        -65.223818,
        -26.857641
       ],
       [
        -65.222942,
        -26.856672
       ],
       [
        -65.221992,
        -26.855186
       ],
       [
        -65.218631,
        -26.840998
       ],
       [
        -65.234205,
        -26.837961
       ]
      ]
     ]
    ]
   }
  },
  {
   "type": "Feature",
   "properties": {
    "id": 15,
    "name": "Distrito 15",
    "numero": 15
   },
   "geometry": {
    "type": "MultiPolygon",
    "coordinates": [
     [
      [
       [
        -65.218685,
        -26.840982
       ],
       [
        -65.219763,
        -26.845577
       ],
       [
        -65.221954,
        -26.855144
       ],
       [
        -65.222996,
        -26.856755
       ],
       [
        -65.223848,
        -26.857726
       ],
       [
        -65.227448,
        -26.861136
       ],
       [
        -65.228372,
        -26.862107
       ],
       [
        -65.220272,
        -26.863623
       ],
       [
        -65.220817,
        -26.864831
       ],
       [
        -65.221172,
        -26.866512
       ],
       [
        -65.210918,
        -26.868383
       ],
       [
        -65.204097,
        -26.858247
       ],
       [
        -65.204322,
        -26.858069
       ],
       [
        -65.203931,
        -26.856968
       ],
       [
        -65.203375,
        -26.85711
       ],
       [
        -65.20161,
        -26.853593
       ],
       [
        -65.199562,
        -26.845233
       ],
       [
        -65.200047,
        -26.845079
       ],
       [
        -65.200308,
        -26.844688
       ],
       [
        -65.218685,
        -26.840982
       ]
      ]
     ]
    ]
   }
  },
  {
   "type": "Feature",
   "properties": {
    "id": 16,
    "name": "Distrito 16",
    "numero": 16
   },
   "geometry": {
    "type": "MultiPolygon",
    "coordinates": [
     [
      [
       [
        -65.19957,
        -26.84522
       ],
       [
        -65.201571,
        -26.85359
       ],
       [
        -65.203313,
        -26.857114
       ],
       [
        -65.203928,
        -26.856945
       ],
       [
        -65.204305,
        -26.85805
       ],
       [
        -65.204073,
        -26.858255
       ],
       [
        -65.210835,
        -26.868342
       ],
       [
        -65.210872,
        -26.868388
       ],
       [
        -65.214203,
        -26.873415
       ],
       [
        -65.198273,
        -26.876951
       ],
       [
        -65.197899,
        -26.876376
       ],
       [
        -65.198092,
        -26.875756
       ],
       [
        -65.19797,
        -26.875176
       ],
       [
        -65.197043,
        -26.8742
       ],
       [
        -65.196779,
        -26.873132
       ],
       [
        -65.196306,
        -26.872661
       ],
       [
        -65.196209,
        -26.871938
       ],
       [
        -65.195855,
        -26.87006
       ],
       [
        -65.195887,
        -26.869273
       ],
       [
        -65.195372,
        -26.867826
       ],
       [
        -65.195141,
        -26.867608
       ],
       [
        -65.194742,
        -26.867298
       ],
       [
        -65.194156,
        -26.867125
       ],
       [
        -65.193595,
        -26.866949
       ],
       [
        -65.192933,
        -26.866241
       ],
       [
        -65.192341,
        -26.865397
       ],
       [
        -65.191569,
        -26.864748
       ],
       [
        -65.191192,
        -26.864429
       ],
       [
        -65.189995,
        -26.86403
       ],
       [
        -65.187748,
        -26.86297
       ],
       [
        -65.187088,
        -26.862505
       ],
       [
        -65.186525,
        -26.861945
       ],
       [
        -65.186055,
        -26.861593
       ],
       [
        -65.185551,
        -26.861219
       ],
       [
        -65.185059,
        -26.86082
       ],
       [
        -65.184983,
        -26.860435
       ],
       [
        -65.184906,
        -26.860115
       ],
       [
        -65.184788,
        -26.859705
       ],
       [
        -65.184434,
        -26.859158
       ],
       [
        -65.184083,
        -26.85853
       ],
       [
        -65.183964,
        -26.858086
       ],
       [
        -65.183887,
        -26.857934
       ],
       [
        -65.183642,
        -26.85741
       ],
       [
        -65.183333,
        -26.856896
       ],
       [
        -65.183065,
        -26.856545
       ],
       [
        -65.182862,
        -26.856268
       ],
       [
        -65.182419,
        -26.855799
       ],
       [
        -65.182015,
        -26.855533
       ],
       [
        -65.181479,
        -26.85528
       ],
       [
        -65.181119,
        -26.855119
       ],
       [
        -65.180243,
        -26.854419
       ],
       [
        -65.17902,
        -26.854183
       ],
       [
        -65.178872,
        -26.853379
       ],
       [
        -65.179374,
        -26.852558
       ],
       [
        -65.179484,
        -26.852087
       ],
       [
        -65.179664,
        -26.85134
       ],
       [
        -65.179921,
        -26.851019
       ],
       [
        -65.17976,
        -26.850571
       ],
       [
        -65.179799,
        -26.85045
       ],
       [
        -65.183514,
        -26.849858
       ],
       [
        -65.199111,
        -26.845361
       ],
       [
        -65.19957,
        -26.84522
       ]
      ]
     ]
    ]
   }
  },
  {
   "type": "Feature",
   "properties": {
    "id": 17,
    "name": "Distrito 17",
    "numero": 17
   },
   "geometry": {
    "type": "MultiPolygon",
    "coordinates": [
     [
      [
       [
        -65.269627,
        -26.84595
       ],
       [
        -65.269743,
        -26.84622
       ],
       [
        -65.270129,
        -26.846346
       ],
       [
        -65.270387,
        -26.846306
       ],
       [
        -65.271185,
        -26.846863
       ],
       [
        -65.271661,
        -26.846967
       ],
       [
        -65.271835,
        -26.847093
       ],
       [
        -65.271964,
        -26.847288
       ],
       [
        -65.272395,
        -26.847495
       ],
       [
        -65.27253,
        -26.847748
       ],
       [
        -65.272794,
        -26.847926
       ],
       [
        -65.272923,
        -26.847943
       ],
       [
        -65.272904,
        -26.848138
       ],
       [
        -65.273226,
        -26.84854
       ],
       [
        -65.27356,
        -26.849109
       ],
       [
        -65.273985,
        -26.849264
       ],
       [
        -65.274075,
        -26.849465
       ],
       [
        -65.274318,
        -26.849556
       ],
       [
        -65.274526,
        -26.849678
       ],
       [
        -65.274552,
        -26.849896
       ],
       [
        -65.274629,
        -26.850183
       ],
       [
        -65.274796,
        -26.850327
       ],
       [
        -65.274874,
        -26.850476
       ],
       [
        -65.274874,
        -26.850677
       ],
       [
        -65.274931,
        -26.85105
       ],
       [
        -65.274455,
        -26.852159
       ],
       [
        -65.274301,
        -26.852285
       ],
       [
        -65.274101,
        -26.85221
       ],
       [
        -65.273914,
        -26.852291
       ],
       [
        -65.273097,
        -26.854157
       ],
       [
        -65.272942,
        -26.85429
       ],
       [
        -65.272691,
        -26.854295
       ],
       [
        -65.272337,
        -26.854537
       ],
       [
        -65.272092,
        -26.854565
       ],
       [
        -65.271391,
        -26.855163
       ],
       [
        -65.271101,
        -26.85584
       ],
       [
        -65.270747,
        -26.856575
       ],
       [
        -65.27058,
        -26.857138
       ],
       [
        -65.27085,
        -26.857586
       ],
       [
        -65.270959,
        -26.858218
       ],
       [
        -65.270998,
        -26.858723
       ],
       [
        -65.271243,
        -26.85947
       ],
       [
        -65.271423,
        -26.859855
       ],
       [
        -65.271623,
        -26.860136
       ],
       [
        -65.271754,
        -26.860222
       ],
       [
        -65.270856,
        -26.860234
       ],
       [
        -65.249488,
        -26.864273
       ],
       [
        -65.247136,
        -26.864601
       ],
       [
        -65.24247,
        -26.861683
       ],
       [
        -65.241907,
        -26.859091
       ],
       [
        -65.242563,
        -26.858505
       ],
       [
        -65.246928,
        -26.854784
       ],
       [
        -65.248986,
        -26.853049
       ],
       [
        -65.250302,
        -26.850094
       ],
       [
        -65.252152,
        -26.849819
       ],
       [
        -65.258654,
        -26.848463
       ],
       [
        -65.261348,
        -26.847973
       ],
       [
        -65.265328,
        -26.847143
       ],
       [
        -65.265311,
        -26.846831
       ],
       [
        -65.269627,
        -26.84595
       ]
      ]
     ]
    ]
   }
  },
  {
   "type": "Feature",
   "properties": {
    "id": 18,
    "name": "Distrito 18",
    "numero": 18
   },
   "geometry": {
    "type": "MultiPolygon",
    "coordinates": [
     [
      [
       [
        -65.245299,
        -26.863558
       ],
       [
        -65.247097,
        -26.864739
       ],
       [
        -65.249527,
        -26.864205
       ],
       [
        -65.270876,
        -26.860257
       ],
       [
        -65.271648,
        -26.860234
       ],
       [
        -65.271764,
        -26.860228
       ],
       [
        -65.272324,
        -26.860515
       ],
       [
        -65.272403,
        -26.860776
       ],
       [
        -65.272402,
        -26.861017
       ],
       [
        -65.272453,
        -26.861187
       ],
       [
        -65.272434,
        -26.861658
       ],
       [
        -65.272286,
        -26.861853
       ],
       [
        -65.272273,
        -26.862112
       ],
       [
        -65.272292,
        -26.862514
       ],
       [
        -65.271777,
        -26.863054
       ],
       [
        -65.271751,
        -26.863456
       ],
       [
        -65.271616,
        -26.863735
       ],
       [
        -65.271558,
        -26.863995
       ],
       [
        -65.271429,
        -26.864237
       ],
       [
        -65.270708,
        -26.864949
       ],
       [
        -65.270747,
        -26.865178
       ],
       [
        -65.271262,
        -26.865213
       ],
       [
        -65.271314,
        -26.865523
       ],
       [
        -65.271415,
        -26.866383
       ],
       [
        -65.271399,
        -26.866621
       ],
       [
        -65.271222,
        -26.866991
       ],
       [
        -65.268872,
        -26.867428
       ],
       [
        -65.26425,
        -26.868292
       ],
       [
        -65.261813,
        -26.86874
       ],
       [
        -65.258865,
        -26.86928
       ],
       [
        -65.255559,
        -26.869909
       ],
       [
        -65.253496,
        -26.870285
       ],
       [
        -65.251703,
        -26.870621
       ],
       [
        -65.247516,
        -26.871393
       ],
       [
        -65.243853,
        -26.872076
       ],
       [
        -65.239687,
        -26.872852
       ],
       [
        -65.241387,
        -26.874631
       ],
       [
        -65.241095,
        -26.874757
       ],
       [
        -65.23027,
        -26.876768
       ],
       [
        -65.230274,
        -26.868907
       ],
       [
        -65.230602,
        -26.868271
       ],
       [
        -65.241855,
        -26.859125
       ],
       [
        -65.242473,
        -26.861698
       ],
       [
        -65.245299,
        -26.863558
       ]
      ]
     ]
    ]
   }
  },
  {
   "type": "Feature",
   "properties": {
    "id": 19,
    "name": "Distrito 19",
    "numero": 19
   },
   "geometry": {
    "type": "MultiPolygon",
    "coordinates": [
     [
      [
       [
        -65.210858,
        -26.868347
       ],
       [
        -65.221137,
        -26.866477
       ],
       [
        -65.220829,
        -26.864842
       ],
       [
        -65.220284,
        -26.863635
       ],
       [
        -65.228218,
        -26.862143
       ],
       [
        -65.231533,
        -26.867637
       ],
       [
        -65.230574,
        -26.868253
       ],
       [
        -65.230278,
        -26.868892
       ],
       [
        -65.230219,
        -26.874777
       ],
       [
        -65.216886,
        -26.877169
       ],
       [
        -65.210858,
        -26.868347
       ]
      ]
     ]
    ]
   }
  },
  {
   "type": "Feature",
   "properties": {
    "id": 20,
    "name": "Distrito 20",
    "numero": 20
   },
   "geometry": {
    "type": "MultiPolygon",
    "coordinates": [
     [
      [
       [
        -65.230267,
        -26.874718
       ],
       [
        -65.230266,
        -26.876765
       ],
       [
        -65.230428,
        -26.880115
       ],
       [
        -65.230554,
        -26.882693
       ],
       [
        -65.230696,
        -26.884788
       ],
       [
        -65.230638,
        -26.885569
       ],
       [
        -65.230477,
        -26.886258
       ],
       [
        -65.230213,
        -26.886993
       ],
       [
        -65.229369,
        -26.888245
       ],
       [
        -65.229131,
        -26.888693
       ],
       [
        -65.228758,
        -26.889296
       ],
       [
        -65.228436,
        -26.889692
       ],
       [
        -65.226807,
        -26.89227
       ],
       [
        -65.225391,
        -26.894526
       ],
       [
        -65.224445,
        -26.895938
       ],
       [
        -65.223505,
        -26.897316
       ],
       [
        -65.222983,
        -26.898218
       ],
       [
        -65.222378,
        -26.899027
       ],
       [
        -65.2214,
        -26.900135
       ],
       [
        -65.219539,
        -26.901674
       ],
       [
        -65.217589,
        -26.903224
       ],
       [
        -65.216861,
        -26.903752
       ],
       [
        -65.216765,
        -26.904045
       ],
       [
        -65.216552,
        -26.904297
       ],
       [
        -65.216307,
        -26.904487
       ],
       [
        -65.215998,
        -26.904584
       ],
       [
        -65.214067,
        -26.906071
       ],
       [
        -65.212535,
        -26.907914
       ],
       [
        -65.211624,
        -26.908996
       ],
       [
        -65.211322,
        -26.909008
       ],
       [
        -65.211074,
        -26.909028
       ],
       [
        -65.210774,
        -26.909071
       ],
       [
        -65.210385,
        -26.909168
       ],
       [
        -65.20997,
        -26.909326
       ],
       [
        -65.20977,
        -26.910113
       ],
       [
        -65.209712,
        -26.910273
       ],
       [
        -65.209654,
        -26.910426
       ],
       [
        -65.209571,
        -26.910604
       ],
       [
        -65.209458,
        -26.910799
       ],
       [
        -65.209274,
        -26.911008
       ],
       [
        -65.209101,
        -26.911114
       ],
       [
        -65.208911,
        -26.91116
       ],
       [
        -65.208721,
        -26.911157
       ],
       [
        -65.208505,
        -26.911086
       ],
       [
        -65.208335,
        -26.910957
       ],
       [
        -65.208116,
        -26.910802
       ],
       [
        -65.2078,
        -26.910635
       ],
       [
        -65.20751,
        -26.910526
       ],
       [
        -65.207124,
        -26.910371
       ],
       [
        -65.206867,
        -26.910216
       ],
       [
        -65.206622,
        -26.909969
       ],
       [
        -65.206519,
        -26.909768
       ],
       [
        -65.20639,
        -26.909401
       ],
       [
        -65.206197,
        -26.909079
       ],
       [
        -65.205998,
        -26.908781
       ],
       [
        -65.205631,
        -26.908126
       ],
       [
        -65.205341,
        -26.907306
       ],
       [
        -65.205277,
        -26.906697
       ],
       [
        -65.205309,
        -26.906496
       ],
       [
        -65.205421,
        -26.906269
       ],
       [
        -65.205676,
        -26.906048
       ],
       [
        -65.205978,
        -26.905911
       ],
       [
        -65.206532,
        -26.905819
       ],
       [
        -65.207086,
        -26.905738
       ],
       [
        -65.2078,
        -26.905704
       ],
       [
        -65.208502,
        -26.905727
       ],
       [
        -65.208965,
        -26.905624
       ],
       [
        -65.209368,
        -26.905124
       ],
       [
        -65.209664,
        -26.904498
       ],
       [
        -65.209825,
        -26.90387
       ],
       [
        -65.209851,
        -26.903482
       ],
       [
        -65.209831,
        -26.903095
       ],
       [
        -65.209818,
        -26.90298
       ],
       [
        -65.209393,
        -26.90228
       ],
       [
        -65.209033,
        -26.90151
       ],
       [
        -65.208737,
        -26.900867
       ],
       [
        -65.208363,
        -26.900316
       ],
       [
        -65.207861,
        -26.899794
       ],
       [
        -65.207398,
        -26.899438
       ],
       [
        -65.206941,
        -26.899122
       ],
       [
        -65.206703,
        -26.898726
       ],
       [
        -65.206696,
        -26.898404
       ],
       [
        -65.206799,
        -26.898008
       ],
       [
        -65.206818,
        -26.897727
       ],
       [
        -65.206844,
        -26.897532
       ],
       [
        -65.206741,
        -26.897342
       ],
       [
        -65.206516,
        -26.896929
       ],
       [
        -65.206394,
        -26.896349
       ],
       [
        -65.206458,
        -26.896027
       ],
       [
        -65.206709,
        -26.895723
       ],
       [
        -65.207044,
        -26.895562
       ],
       [
        -65.207436,
        -26.895534
       ],
       [
        -65.207945,
        -26.895384
       ],
       [
        -65.208376,
        -26.895149
       ],
       [
        -65.208788,
        -26.894851
       ],
       [
        -65.209239,
        -26.894546
       ],
       [
        -65.209651,
        -26.894288
       ],
       [
        -65.209812,
        -26.894116
       ],
       [
        -65.209909,
        -26.893903
       ],
       [
        -65.209921,
        -26.893668
       ],
       [
        -65.209857,
        -26.893519
       ],
       [
        -65.209741,
        -26.893323
       ],
       [
        -65.20949,
        -26.893099
       ],
       [
        -65.209181,
        -26.892927
       ],
       [
        -65.208833,
        -26.892766
       ],
       [
        -65.208505,
        -26.89268
       ],
       [
        -65.207964,
        -26.892606
       ],
       [
        -65.20763,
        -26.892646
       ],
       [
        -65.207379,
        -26.892663
       ],
       [
        -65.207034,
        -26.892643
       ],
       [
        -65.206693,
        -26.892594
       ],
       [
        -65.206474,
        -26.892531
       ],
       [
        -65.206242,
        -26.892425
       ],
       [
        -65.20604,
        -26.89231
       ],
       [
        -65.205821,
        -26.892023
       ],
       [
        -65.205631,
        -26.8915
       ],
       [
        -65.205734,
        -26.891096
       ],
       [
        -65.205727,
        -26.890809
       ],
       [
        -65.205631,
        -26.890306
       ],
       [
        -65.205486,
        -26.890108
       ],
       [
        -65.205141,
        -26.889927
       ],
       [
        -65.204868,
        -26.889855
       ],
       [
        -65.20425,
        -26.889749
       ],
       [
        -65.20368,
        -26.889752
       ],
       [
        -65.203249,
        -26.889709
       ],
       [
        -65.203007,
        -26.889571
       ],
       [
        -65.202785,
        -26.889379
       ],
       [
        -65.202624,
        -26.889152
       ],
       [
        -65.202534,
        -26.888943
       ],
       [
        -65.202499,
        -26.888762
       ],
       [
        -65.202518,
        -26.888483
       ],
       [
        -65.202911,
        -26.88759
       ],
       [
        -65.203658,
        -26.886531
       ],
       [
        -65.203452,
        -26.886121
       ],
       [
        -65.203352,
        -26.885925
       ],
       [
        -65.201981,
        -26.88581
       ],
       [
        -65.201208,
        -26.885489
       ],
       [
        -65.200867,
        -26.884989
       ],
       [
        -65.201176,
        -26.884519
       ],
       [
        -65.201408,
        -26.883663
       ],
       [
        -65.200944,
        -26.882957
       ],
       [
        -65.200725,
        -26.882107
       ],
       [
        -65.200313,
        -26.881837
       ],
       [
        -65.199515,
        -26.882061
       ],
       [
        -65.198929,
        -26.88178
       ],
       [
        -65.198659,
        -26.881205
       ],
       [
        -65.198517,
        -26.880023
       ],
       [
        -65.19918,
        -26.878782
       ],
       [
        -65.19929,
        -26.878007
       ],
       [
        -65.198453,
        -26.877186
       ],
       [
        -65.198318,
        -26.876962
       ],
       [
        -65.214209,
        -26.87341
       ],
       [
        -65.215203,
        -26.874921
       ],
       [
        -65.216855,
        -26.877227
       ],
       [
        -65.224177,
        -26.875862
       ],
       [
        -65.226167,
        -26.875473
       ],
       [
        -65.230267,
        -26.874718
       ]
      ]
     ]
    ]
   }
  }
 ]
}
